{"fetched_at":"2026-03-29T02:12:04Z","count":15717,"tles":[{"name":"2022-023C","line1":"1 51948U 22023C   26085.88668698  .00001161  00000+0  61617-4 0  9999","line2":"2 51948  63.4882 190.5233 0097306 349.1135  10.7870 15.17810169225229","category":"Other"}]}